#dP2024 12 28 12  0  0.00000000      96 __u+U IGS20 EXT  IAC
## 2346 561600.00000000   900.00000000 60672 0.5000000000000
+   52   G02G03G04G05G06G07G08G09G10G11G12G13G14G15G16G17G18
+        G19G20G21G22G23G24G25G26G27G28G29G30G31G32R01R02R03
+        R04R05R07R08R09R11R12R14R15R16R17R18R19R20R21R22R24
+        R26  0  0  0  0  0  0  0  0  0  0  0  0  0  0  0  0
+          0  0  0  0  0  0  0  0  0  0  0  0  0  0  0  0  0
++         7  7  8  6  8  7  8  8  8  7  7  7  7  7  7  7  7
++         8  6  7  8  7  8  7  7  8  7  7  7  7  8  9  9  8
++         7  7  6  9  7  6  7  8  7  7  8  9  8  9  8  8  8
++         8  0  0  0  0  0  0  0  0  0  0  0  0  0  0  0  0
++         0  0  0  0  0  0  0  0  0  0  0  0  0  0  0  0  0
%c M  cc GPS ccc cccc cccc cccc cccc ccccc ccccc ccccc ccccc
%c cc cc ccc ccc cccc cccc cccc cccc ccccc ccccc ccccc ccccc
%f  0.0000000  0.000000000  0.00000000000  0.000000000000000
%f  0.0000000  0.000000000  0.00000000000  0.000000000000000
%i    0    0    0    0      0      0      0      0         0
%i    0    0    0    0      0      0      0      0         0
/* IAC                                ULTRA-RAPID PREDICTION
/* S/V CLOCKS ARE ALIGNED TO GNSS TIME                      
/* G:C1WC2W R:C1PC2P E:C1XC5X C:C2IC6I J:C1CC2S             
/* PCV:IGS20_2317 OL/AL:FES2004  NONE     YN ORB:CoN CLK:CoN
*  2024 12 28 22 30  0.00000000
PG02  13764.641115 -12036.912055  19592.595567   -281.098881
PG03  22966.040342 -12729.578182  -3726.973590    634.807235
PG04  14942.165189  -6655.362798 -20938.603022    503.297635
PG05 -23918.341030   3490.082287 -11258.061422   -197.392017
PG06  -6375.339152 -21760.343471 -13657.909539    -78.656212
PG07   6691.874108 -24679.783648  -5713.316671    -14.321616
PG08  22332.062634   2587.399359  14362.501779    449.052160
PG09   6396.666861 -14027.511212 -21717.487908    506.415266
PG10   4943.997734  13909.473309  22301.699395   -253.495302
PG11 -12824.517940 -10657.172633 -20645.651282   -752.641922
PG12 -24693.361694   9694.072955   -914.726954   -561.181056
PG13 -21686.862275 -12327.093828   9227.239943    691.621713
PG14   -744.439119 -16204.731475  21041.929038    569.345697
PG15 -22164.425723    452.967775  14211.306140    245.101523
PG16  22215.405723   3334.653921 -14871.528227    -91.633421
PG17  -8514.560646 -20395.059823  14987.427130    499.132998
PG18  -5802.702099  25498.554861  -3859.945052   -659.489297
PG19 -16815.964500 -20112.307124   5385.969861    579.503752
PG20 -17266.080514  -4829.232036 -19466.226734    367.514733
PG21  15181.904415  -4070.581581  21649.377515     98.923373
PG22  -8512.523190 -13204.955204  21770.452726    -89.204706
PG23 -10294.274608  17502.087672  17037.591088    392.867514
PG24 -14344.469820  10146.654357  19337.141084   -469.429803
PG25 -16372.275441  17185.485755 -11999.227639    497.531464
PG26  14194.480884   9653.312252 -20531.867571    -26.416659
PG27  23230.343032  12297.102681   4895.309763    -33.723864
PG28   6490.837422  22959.621322 -11683.329931   -520.925992
PG29  -7201.240153  13494.759040 -21748.253111   -551.990812
PG30  -1382.404189 -25849.749458   5418.768871   -251.312662
PG31  11485.204842  15036.369764 -18738.880399   -219.057873
PG32  13576.023250  19763.802182  11876.411592   -551.368136
PR01  20532.135600  10440.318616  10952.979123    109.354457
PR02  24435.163274   4206.102138  -6105.297341    -38.855174
PR03  14733.202234  -5567.366640 -20039.285363    114.046948
PR04  -2619.026041 -11573.157546 -22547.190484    270.356092
PR05 -18519.357422 -11724.484560 -13010.856226    142.912302
PR07 -14294.167839   5814.052774  20334.315413     97.814201
PR08   3026.593119  11752.319512  22503.587207     -6.191021
PR09 -18041.891485   6901.800575  16719.710442    228.877459
PR11  -9806.106624  19071.164097 -13821.141708      2.702817
PR12   6882.151990   8697.204287 -22953.374255     48.964186
PR14  18377.890471 -17630.652688  -1253.904790     27.505377
PR15   8440.735229 -18642.479866  15235.074816     72.716002
PR16  -6690.924672  -8687.123277  23031.657146     32.021105
PR17   5884.194925 -14596.543764  20102.323634    152.582460
PR18  -2223.187288 -24264.398984   7484.831431    179.151693
PR19  -8014.943281 -23084.355359  -7315.959878   -303.585335
PR20 -11241.399434  -5429.625862 -22221.147728   -123.910641
PR21  -6487.955734  13391.473794 -20703.415349   -163.469603
PR22   2289.213163  24658.838414  -6110.646671    -53.190857
PR24  11905.099810   4241.824566  22177.788023    -85.928295
PR26    982.307794  11312.468947  22860.617889   -132.337728
*  2024 12 28 22 45  0.00000000
PG02  13900.277126  -9812.724503  20764.469737   -281.090783
PG03  23264.536314 -12667.110286   -827.134594    634.814506
PG04  16784.380294  -5214.828201 -19941.584084    503.303057
PG05 -22775.125834   2673.155546 -13632.643152   -197.392978
PG06  -6094.316042 -23176.406327 -11247.224881    -78.681229
PG07   6941.140157 -23776.004399  -8412.728439    -14.320920
PG08  23518.800923   3561.340473  12146.608412    449.059794
PG09   8484.001059 -12704.693593 -21822.769052    506.429346
PG10   2696.182410  14954.453702  21975.875451   -253.509577
PG11 -12463.209894 -12935.351481 -19543.163788   -752.641659
PG12 -24706.520537   9420.283857   1943.676900   -561.183070
PG13 -22240.617321 -13092.386109   6553.993405    691.622982
PG14   1441.898899 -17106.873808  20254.339398    569.352389
PG15 -23485.748568   -445.878814  12011.391583    245.105635
PG16  20641.255796   4088.801986 -16828.196494    -91.624850
PG17  -7011.607510 -19450.661916  16964.191605    499.117980
PG18  -5975.417069  24871.283448  -6670.113008   -659.488521
PG19 -16090.914680 -19766.066261   8086.680930    579.507958
PG20 -15465.245204  -6281.695405 -20543.388111    367.514456
PG21  15304.552273  -1646.576124  21984.099066     98.925280
PG22  -6256.107678 -14092.768509  22009.401742    -89.206741
PG23 -11987.948619  18216.321209  15040.502794    392.874372
PG24 -14549.399478   7772.937640  20276.034456   -469.426646
PG25 -17555.013151  17496.132219  -9529.596785    497.531022
PG26  12204.907591  10909.082559 -21143.005959    -26.429843
PG27  23463.768789  12722.569929   2104.842372    -33.723445
PG28   6218.720198  24141.203605  -9177.607282   -520.935187
PG29  -9161.304789  11964.000218 -21917.260836   -551.987808
PG30  -1010.268645 -26275.763917   2650.659761   -251.305214
PG31  11128.460833  17033.635192 -17123.504024   -219.057175
PG32  12268.797096  19112.874111  14167.624867   -551.362351
PR01  19073.447641   9995.503367  13669.347780    109.355717
PR02  25025.614632   4174.339819  -2946.682671    -38.854942
PR03  17058.953066  -5093.840757 -18250.030142    114.047565
PR04    108.379259 -10840.648141 -23058.389342    270.357621
PR05 -16846.061757 -11138.552776 -15551.844901    142.912905
PR07 -16641.954365   5325.880048  18600.184985     97.814896
PR08    319.633210  11050.579040  23051.685513     -6.191127
PR09 -16545.808172   5316.156226  18721.012059    228.879450
PR11 -10770.379982  20277.641901 -11125.506449      2.701160
PR12   4957.622699  10748.813507 -22576.740386     48.964663
PR14  18055.756203 -17450.759102  -4427.145590     27.505508
PR15   9552.129443 -19960.638882  12694.844220     72.715535
PR16  -4770.947579 -10749.586339  22632.895517     32.021273
PR17   6506.223723 -12106.391174  21512.613614    152.585516
PR18  -2110.536551 -23147.646647  10471.858219    179.153463
PR19  -8382.444258 -23727.991635  -4173.291474   -303.586534
PR20 -11927.437890  -8020.004895 -21046.135293   -123.911087
PR21  -7112.889968  10827.805189 -21961.049708   -163.472443
PR22   2194.725673  23708.618695  -9138.677940    -53.192323
PR24  12689.552913   6788.308955  21080.135485    -85.929586
PR26  -1769.935752  10635.178441  23138.259233   -132.337352
EOF
